[{"OBJECT_NAME":"SITRO-AIS 8 (ANOKHIN)","OBJECT_ID":"2023-091AD","EPOCH":"2026-03-09T23:44:40.058592","MEAN_MOTION":15.29359179,"ECCENTRICITY":0.0012509,"INCLINATION":97.5169,"RA_OF_ASC_NODE":133.2823,"ARG_OF_PERICENTER":92.0171,"MEAN_ANOMALY":268.2501,"EPHEMERIS_TYPE":0,"CLASSIFICATION_TYPE":"U","NORAD_CAT_ID":57193,"ELEMENT_SET_NO":999,"REV_AT_EPOCH":14927,"BSTAR":0.00064982524,"MEAN_MOTION_DOT":0.00018494,"MEAN_MOTION_DDOT":0},{"OBJECT_NAME":"STARLINK-32529","OBJECT_ID":"2024-224A","EPOCH":"2026-03-08T14:50:06.982368","MEAN_MOTION":15.27605204,"ECCENTRICITY":0.00015341,"INCLINATION":43.001,"RA_OF_ASC_NODE":164.3946,"ARG_OF_PERICENTER":275.7458,"MEAN_ANOMALY":84.3218,"EPHEMERIS_TYPE":0,"CLASSIFICATION_TYPE":"U","NORAD_CAT_ID":62139,"ELEMENT_SET_NO":999,"REV_AT_EPOCH":7225,"BSTAR":0.0015124473,"MEAN_MOTION_DOT":0.00041625,"MEAN_MOTION_DDOT":0}]
